GLOBALSTAR M063         
1 26081U 00008A   24338.81973818  .00000026  00000+0  15926-2 0  9992
2 26081  51.9960 266.0983 0004587 306.7076  84.2549 11.86164797134398
GLOBALSTAR M062         
1 26082U 00008B   24338.65712405 -.00000025  00000+0  52107-3 0  9991
2 26082  51.9859 310.7725 0007405  53.6809 116.9815 12.43452874472294
GLOBALSTAR M060         
1 26083U 00008C   24338.68498299  .00000025  00000+0  11554-2 0  9996
2 26083  52.0015 243.0405 0004308  80.3578 290.6663 12.17648524128551
GLOBALSTAR M064         
1 26084U 00008D   24338.77981904 -.00000073  00000+0  13939-3 0  9991
2 26084  52.0057   7.3344 0001541  48.8058 311.2907 11.88525986143864
GLOBALSTAR M065         
1 31571U 07020A   24338.68913204 -.00000023  00000+0  45287-3 0  9993
2 31571  51.9885 101.2922 0009730 226.7351 241.9674 12.61980520808729
GLOBALSTAR M069         
1 31573U 07020C   24338.52292248 -.00000061  00000+0  24947-3 0  9998
2 31573  51.9964  60.6227 0001252 118.6989 255.1596 12.53305808809780
GLOBALSTAR M072         
1 31574U 07020D   24338.86655538 -.00000107  00000+0 -89765-4 0  9993
2 31574  52.0055 156.7732 0001324  88.9288  49.8889 12.34773450808089
GLOBALSTAR M071         
1 31576U 07020F   24338.49176593 -.00000053  00000+0  28520-3 0  9993
2 31576  52.0081  62.8111 0001211 109.4728 263.9223 12.62264618471024
